#aV2007  7  4  0  0   .00000000      96 DD+AD WGS84 FIT  NGA
## 1434 259200.00000000   900.00000000 54285  .0000000000000
+   31     1  2  3  4  5  6  7  8  9 10 11 12 13 14 16 17 18
+         19 20 21 22 23 24 25 26 27 28 29 30 31 32  0  0  0
+          0  0  0  0  0  0  0  0  0  0  0  0  0  0  0  0  0
+          0  0  0  0  0  0  0  0  0  0  0  0  0  0  0  0  0
+          0  0  0  0  0  0  0  0  0  0  0  0  0  0  0  0  0
++         0  0  0  0  0  0  0  0  0  0  0  0  0  0  0  0  0
++         0  0  0  0  0  0  0  0  0  0  0  0  0  0  0  0  0
++         0  0  0  0  0  0  0  0  0  0  0  0  0  0  0  0  0
++         0  0  0  0  0  0  0  0  0  0  0  0  0  0  0  0  0
++         0  0  0  0  0  0  0  0  0  0  0  0  0  0  0  0  0
%c cc cc ccc ccc cccc cccc cccc cccc ccccc ccccc ccccc ccccc
%c cc cc ccc ccc cccc cccc cccc cccc ccccc ccccc ccccc ccccc
%f  0.0000000  0.000000000  0.00000000000  0.000000000000000
%f  0.0000000  0.000000000  0.00000000000  0.000000000000000
%i    0    0    0    0      0      0      0      0         0
%i    0    0    0    0      0      0      0      0         0
/*      NGA, ST. LOUIS,MO.                                  
/*   EPHEMERIS COMPUTED FROM  3 DAYS OF DATA                
/* CCCCCCCCCCCCCCCCCCCCCCCCCCCCCCCCCCCCCCCCCCCCCCCCCCCCCCCCC
/* CCCCCCCCCCCCCCCCCCCCCCCCCCCCCCCCCCCCCCCCCCCCCCCCCCCCCCCCC
*  2007  7  4 13 15   .00000000                                                 
P  1 -16248.787862  -5377.791592 -20120.477996    137.902186                    
V  1  -8650.955079 -24444.960764  13317.647200       .022579                    
P  2  19589.717837  -6715.033830 -16666.547910    119.039167                    
V  2 -10390.070994  18316.891335 -20127.841985       .028358                    
P  3 -16530.864124   2203.491873  20515.431650     81.682854                    
V  3 -12520.972596 -23493.951429  -7151.384277       .055282                    
P  4  15440.101991   4862.073302 -21169.820899      7.857916                    
V  4 -15593.463111  21720.383702  -6050.547205      -.012249                    
P  5   6961.343590 -15137.727785 -20900.206749    137.285454                    
V  5  26073.356484   1338.481290   7958.057054       .473356                    
P  6  -5446.224060 -24621.367773  -8088.564975    228.768532                    
V  6   7806.537657   7950.484165 -28814.559125       .073790                    
P  7  -8561.691391 -24500.446166  -5150.631619    222.641440                    
V  7   6478.884991   4517.331585 -30275.298478      -.197849                    
P  8   7337.529462  13766.302153  21309.518813   -113.585273                    
V  8 -17668.168323  20901.302458  -7810.764243      -.014864                    
P  9  14605.152011 -22036.268712   -154.478831     77.252080                    
V  9   2058.094995   2011.088893  32029.669611       .016792                    
P 10  25858.066410  -1204.149661   6534.939404    104.209289                    
V 10   8020.740814   3261.292896 -30281.119223       .005645                    
P 11 -11570.949517  23730.817532    -87.854452     19.794965                    
V 11  -4641.123264  -2290.194960  30367.630875       .008187                    
P 12  13121.709295 -12271.954646 -19435.029696    -48.491075                    
V 12  24660.005078   3832.131800  14215.371974      -.010431                    
P 13   5020.701277  25093.870739  -7279.808875    187.056959                    
V 13  -4875.660494  -7803.054702 -30681.194919       .032331                    
P 14 -15495.998502 -18802.888855 -10593.010833     28.205147                    
V 14  -3714.466939 -13092.458085  28370.655439       .019397                    
P 16 -26521.471711  -2379.248881   1086.993190    160.255188                    
V 16   -962.474962  -2712.342273 -31683.330975       .026932                    
P 17  15261.836773  20128.291441  -8404.961188     62.405862                    
V 17   1950.448446  10788.357562  29180.573122      -.013163                    
P 18  -9105.619470 -15524.606921  19784.511372   -245.443803                    
V 18  24631.286168   2478.968929  13035.565225       .011995                    
P 19 -11124.666420  12248.242530  20854.425827     48.037730                    
V 19  -9969.120512 -24338.361790   9141.586749       .030489                    
P 20 -10662.758668  13541.729548 -20307.325383    -26.380150                    
V 20 -25382.823764  -3388.697425  11157.680539      -.004368                    
P 21   -289.574284 -20135.904684  17145.100858     78.418809                    
V 21  15261.359971 -15780.994735 -19000.139886       .002431                    
P 22 -20423.686244 -11955.968266  12250.785914    189.365617                    
V 22  15528.252218   -196.013995  25985.273757       .014688                    
P 23  -2503.172741  21095.917295 -15889.606636    179.013121                    
V 23  -9859.047749 -17596.585132 -22132.868533       .031775                    
P 24  11132.560098 -22948.184966   8126.762647     12.538861                    
V 24   8203.926388  -6193.742352 -29184.924732       .029601                    
P 25  -4822.702929  23791.522323  11321.549935    350.179137                    
V 25  -8914.367085  10732.871641 -27087.015235       .186085                    
P 26  12061.049039  -8063.749017  21756.161393   -287.362787                    
V 26  11192.197164  26415.998856   4053.294154      -.218671                    
P 27   1272.412184  20476.418192  17388.131557    120.559635                    
V 27 -12589.995328  16786.298391 -19807.309922       .021960                    
P 28  17724.210889  13091.251228  15414.871645     -2.302621                    
V 28 -18888.034666   -737.275243  22511.379247      -.008770                    
P 29  14354.393958  -3758.800641  22251.454764      4.255274                    
V 29  11276.343275  25257.686461  -2667.976969       .002950                    
P 30    186.510256 -15683.546824 -21752.420371     38.529654                    
V 30  26872.799652   1722.714625   -916.132062       .011225                    
P 31 -16071.840124  -2446.223152 -20823.638746     16.532525                    
V 31  15054.822767 -22266.041599  -8848.669252      -.009157                    
P 32 -25917.271531  -5451.534484    868.047001    491.178743                    
V 32    990.051070  -2362.494236  32110.129423       .212729                    
EOF
